start=new Date('2022-12-13T00:00:00.000Z').valueOf();
sats=[{"MEAN_MOTION":"15.06399616","PERIAPSIS":"546.044","INCLINATION":"53.0543","ARG_OF_PERICENTER":"52.3414","CENTER_NAME":"EARTH","TLE_LINE2":"2 45739  53.0543 108.1506 0001691  52.3414 307.7728 15.06399616138414","ELEMENT_SET_NO":"999","REF_FRAME":"TEME","BSTAR":"0.00002222400000","MEAN_MOTION_DDOT":"0.0000000000000","TIME_SYSTEM":"UTC","RA_OF_ASC_NODE":"108.1506","SEMIMAJOR_AXIS":"6925.350","ECCENTRICITY":"0.00016910","REV_AT_EPOCH":"13841","COUNTRY_CODE":"US","PERIOD":"95.592","MEAN_ANOMALY":"307.7728","MEAN_MOTION_DOT":"0.00000049","NORAD_CAT_ID":"45739","FILE":"3694071","LAUNCH_DATE":"2020-06-13","OBJECT_NAME":"STARLINK-1475","EPHEMERIS_TYPE":"0","SITE":"AFETR","RCS_SIZE":"LARGE","OBJECT_ID":"2020-038K","CLASSIFICATION_TYPE":"U","GP_ID":"220164357","EPOCH":"2022-12-12T12:02:36.830688","OBJECT_TYPE":"PAYLOAD","APOAPSIS":"548.386","TLE_LINE1":"1 45739U 20038K   22346.50181517  .00000049  00000-0  22224-4 0  9995","MEAN_ELEMENT_THEORY":"SGP4","DECAY_DATE":null},{"MEAN_MOTION_DDOT":"0.0000000000000","TIME_SYSTEM":"UTC","REF_FRAME":"TEME","BSTAR":"0.00011944000000","ELEMENT_SET_NO":"999","CENTER_NAME":"EARTH","TLE_LINE2":"2 45740  53.0525 146.4029 0001469  74.6957 285.4194 15.06402716137912","ARG_OF_PERICENTER":"74.6957","PERIAPSIS":"546.188","INCLINATION":"53.0525","MEAN_MOTION":"15.06402716","MEAN_MOTION_DOT":"0.00001498","PERIOD":"95.592","MEAN_ANOMALY":"285.4194","COUNTRY_CODE":"US","ECCENTRICITY":"0.00014690","REV_AT_EPOCH":"13791","SEMIMAJOR_AXIS":"6925.340","RA_OF_ASC_NODE":"146.4029","OBJECT_ID":"2020-038L","SITE":"AFETR","RCS_SIZE":"LARGE","EPHEMERIS_TYPE":"0","LAUNCH_DATE":"2020-06-13","OBJECT_NAME":"STARLINK-1479","FILE":"3695286","NORAD_CAT_ID":"45740","DECAY_DATE":null,"MEAN_ELEMENT_THEORY":"SGP4","TLE_LINE1":"1 45740U 20038L   22346.89347197  .00001498  00000-0  11944-3 0  9992","APOAPSIS":"548.223","OBJECT_TYPE":"PAYLOAD","EPOCH":"2022-12-12T21:26:35.978208","CLASSIFICATION_TYPE":"U","GP_ID":"220206237"},{"RA_OF_ASC_NODE":"146.5266","ECCENTRICITY":"0.00018590","REV_AT_EPOCH":"13792","SEMIMAJOR_AXIS":"6925.320","COUNTRY_CODE":"US","MEAN_MOTION_DOT":"0.00000142","PERIOD":"95.592","MEAN_ANOMALY":"291.1934","INCLINATION":"53.0537","PERIAPSIS":"545.898","ARG_OF_PERICENTER":"68.9254","MEAN_MOTION":"15.06409296","ELEMENT_SET_NO":"999","CENTER_NAME":"EARTH","TLE_LINE2":"2 45741  53.0537 146.5266 0001859  68.9254 291.1934 15.06409296137926","REF_FRAME":"TEME","BSTAR":"0.00002842600000","MEAN_MOTION_DDOT":"0.0000000000000","TIME_SYSTEM":"UTC","CLASSIFICATION_TYPE":"U","GP_ID":"220206485","APOAPSIS":"548.472","OBJECT_TYPE":"PAYLOAD","EPOCH":"2022-12-12T20:44:08.533824","TLE_LINE1":"1 45741U 20038M   22346.86398766  .00000142  00000-0  28426-4 0  9997","DECAY_DATE":null,"MEAN_ELEMENT_THEORY":"SGP4","OBJECT_NAME":"STARLINK-1480","LAUNCH_DATE":"2020-06-13","NORAD_CAT_ID":"45741","FILE":"3695286","SITE":"AFETR","RCS_SIZE":"LARGE","EPHEMERIS_TYPE":"0","OBJECT_ID":"2020-038M"},{"INCLINATION":"53.0555","PERIAPSIS":"546.281","ARG_OF_PERICENTER":"90.8081","MEAN_MOTION":"15.06399529","ELEMENT_SET_NO":"999","CENTER_NAME":"EARTH","TLE_LINE2":"2 45742  53.0555 150.4315 0001349  90.8081 269.3063 15.06399529137772","REF_FRAME":"TEME","BSTAR":"0.00004158200000","MEAN_MOTION_DDOT":"0.0000000000000","TIME_SYSTEM":"UTC","RA_OF_ASC_NODE":"150.4315","ECCENTRICITY":"0.00013490","REV_AT_EPOCH":"13777","SEMIMAJOR_AXIS":"6925.350","COUNTRY_CODE":"US","MEAN_MOTION_DOT":"0.00000338","PERIOD":"95.592","MEAN_ANOMALY":"269.3063","OBJECT_NAME":"STARLINK-1481","LAUNCH_DATE":"2020-06-13","NORAD_CAT_ID":"45742","FILE":"3694071","SITE":"AFETR","RCS_SIZE":"LARGE","EPHEMERIS_TYPE":"0","OBJECT_ID":"2020-038N","CLASSIFICATION_TYPE":"U","GP_ID":"220165097","APOAPSIS":"548.149","EPOCH":"2022-12-11T23:51:31.009824","OBJECT_TYPE":"PAYLOAD","TLE_LINE1":"1 45742U 20038N   22345.99410891  .00000338  00000-0  41582-4 0  9990","DECAY_DATE":null,"MEAN_ELEMENT_THEORY":"SGP4"},{"MEAN_ELEMENT_THEORY":"SGP4","DECAY_DATE":null,"TLE_LINE1":"1 45743U 20038P   22346.47600879  .00000329  00000-0  40990-4 0  9994","OBJECT_TYPE":"PAYLOAD","EPOCH":"2022-12-12T11:25:27.159456","APOAPSIS":"548.538","GP_ID":"220163857","CLASSIFICATION_TYPE":"U","OBJECT_ID":"2020-038P","EPHEMERIS_TYPE":"0","RCS_SIZE":"LARGE","SITE":"AFETR","NORAD_CAT_ID":"45743","FILE":"3694071","OBJECT_NAME":"STARLINK-1483","LAUNCH_DATE":"2020-06-13","MEAN_ANOMALY":"297.1729","PERIOD":"95.592","MEAN_MOTION_DOT":"0.00000329","COUNTRY_CODE":"US","SEMIMAJOR_AXIS":"6925.333","REV_AT_EPOCH":"13785","ECCENTRICITY":"0.00019360","RA_OF_ASC_NODE":"148.2060","TIME_SYSTEM":"UTC","MEAN_MOTION_DDOT":"0.0000000000000","BSTAR":"0.00004099000000","REF_FRAME":"TEME","TLE_LINE2":"2 45743  53.0543 148.2060 0001936  62.9457 297.1729 15.06405225137859","CENTER_NAME":"EARTH","ELEMENT_SET_NO":"999","MEAN_MOTION":"15.06405225","PERIAPSIS":"545.857","ARG_OF_PERICENTER":"62.9457","INCLINATION":"53.0543"},{"TLE_LINE1":"1 45744U 20038Q   22346.58017999  .00003276  00000-0  23870-3 0  9993","DECAY_DATE":null,"MEAN_ELEMENT_THEORY":"SGP4","GP_ID":"220205739","CLASSIFICATION_TYPE":"U","APOAPSIS":"548.393","OBJECT_TYPE":"PAYLOAD","EPOCH":"2022-12-12T13:55:27.551136","RCS_SIZE":"LARGE","SITE":"AFETR","EPHEMERIS_TYPE":"0","OBJECT_ID":"2020-038Q","OBJECT_NAME":"STARLINK-1500","LAUNCH_DATE":"2020-06-13","NORAD_CAT_ID":"45744","FILE":"3695286","COUNTRY_CODE":"US","MEAN_MOTION_DOT":"0.00003276","MEAN_ANOMALY":"288.5656","PERIOD":"95.592","RA_OF_ASC_NODE":"147.8108","REV_AT_EPOCH":"13787","ECCENTRICITY":"0.00017260","SEMIMAJOR_AXIS":"6925.333","BSTAR":"0.00023870000000","REF_FRAME":"TEME","TIME_SYSTEM":"UTC","MEAN_MOTION_DDOT":"0.0000000000000","PERIAPSIS":"546.002","INCLINATION":"53.0533","ARG_OF_PERICENTER":"71.5520","MEAN_MOTION":"15.06405238","ELEMENT_SET_NO":"999","TLE_LINE2":"2 45744  53.0533 147.8108 0001726  71.5520 288.5656 15.06405238137870","CENTER_NAME":"EARTH"},{"FILE":"3695286","NORAD_CAT_ID":"45745","LAUNCH_DATE":"2020-06-13","OBJECT_NAME":"STARLINK-1503","OBJECT_ID":"2020-038R","EPHEMERIS_TYPE":"0","SITE":"AFETR","RCS_SIZE":"LARGE","EPOCH":"2022-12-12T20:01:40.319616","OBJECT_TYPE":"PAYLOAD","APOAPSIS":"548.274","CLASSIFICATION_TYPE":"U","GP_ID":"220205987","MEAN_ELEMENT_THEORY":"SGP4","DECAY_DATE":null,"TLE_LINE1":"1 45745U 20038R   22346.83449444  .00000903  00000-0  79472-4 0  9990","CENTER_NAME":"EARTH","TLE_LINE2":"2 45745  53.0551 146.6694 0001590  67.7779 292.3378 15.06413317137905","ELEMENT_SET_NO":"999","MEAN_MOTION":"15.06413317","PERIAPSIS":"546.072","INCLINATION":"53.0551","ARG_OF_PERICENTER":"67.7779","MEAN_MOTION_DDOT":"0.0000000000000","TIME_SYSTEM":"UTC","REF_FRAME":"TEME","BSTAR":"0.00007947200000","SEMIMAJOR_AXIS":"6925.308","ECCENTRICITY":"0.00015900","REV_AT_EPOCH":"13790","RA_OF_ASC_NODE":"146.6694","PERIOD":"95.591","MEAN_ANOMALY":"292.3378","MEAN_MOTION_DOT":"0.00000903","COUNTRY_CODE":"US"},{"COUNTRY_CODE":"US","MEAN_ANOMALY":"283.9404","PERIOD":"95.593","MEAN_MOTION_DOT":"0.00002089","RA_OF_ASC_NODE":"148.3897","SEMIMAJOR_AXIS":"6925.370","REV_AT_EPOCH":"13784","ECCENTRICITY":"0.00013250","BSTAR":"0.00015913000000","REF_FRAME":"TEME","TIME_SYSTEM":"UTC","MEAN_MOTION_DDOT":"0.0000000000000","MEAN_MOTION":"15.06392981","ARG_OF_PERICENTER":"76.1732","PERIAPSIS":"546.317","INCLINATION":"53.0524","TLE_LINE2":"2 45746  53.0524 148.3897 0001325  76.1732 283.9404 15.06392981137841","CENTER_NAME":"EARTH","ELEMENT_SET_NO":"999","TLE_LINE1":"1 45746U 20038S   22346.45117736  .00002089  00000-0  15913-3 0  9991","MEAN_ELEMENT_THEORY":"SGP4","DECAY_DATE":null,"GP_ID":"220165598","CLASSIFICATION_TYPE":"U","EPOCH":"2022-12-12T10:49:41.723904","OBJECT_TYPE":"PAYLOAD","APOAPSIS":"548.153","EPHEMERIS_TYPE":"0","RCS_SIZE":"LARGE","SITE":"AFETR","OBJECT_ID":"2020-038S","FILE":"3694071","NORAD_CAT_ID":"45746","LAUNCH_DATE":"2020-06-13","OBJECT_NAME":"STARLINK-1504"},{"SEMIMAJOR_AXIS":"6925.326","REV_AT_EPOCH":"13791","ECCENTRICITY":"0.00012110","RA_OF_ASC_NODE":"146.5859","MEAN_ANOMALY":"280.9257","PERIOD":"95.592","MEAN_MOTION_DOT":"0.00003377","COUNTRY_CODE":"US","TLE_LINE2":"2 45747  53.0524 146.5859 0001211  79.1869 280.9257 15.06407245137919","CENTER_NAME":"EARTH","ELEMENT_SET_NO":"999","MEAN_MOTION":"15.06407245","PERIAPSIS":"546.353","ARG_OF_PERICENTER":"79.1869","INCLINATION":"53.0524","TIME_SYSTEM":"UTC","MEAN_MOTION_DDOT":"0.0000000000000","BSTAR":"0.00024541000000","REF_FRAME":"TEME","EPOCH":"2022-12-12T20:28:12.615456","OBJECT_TYPE":"PAYLOAD","APOAPSIS":"548.030","GP_ID":"220205487","CLASSIFICATION_TYPE":"U","MEAN_ELEMENT_THEORY":"SGP4","DECAY_DATE":null,"TLE_LINE1":"1 45747U 20038T   22346.85292379  .00003377  00000-0  24541-3 0  9991","FILE":"3695286","NORAD_CAT_ID":"45747","LAUNCH_DATE":"2020-06-13","OBJECT_NAME":"STARLINK-1506","OBJECT_ID":"2020-038T","EPHEMERIS_TYPE":"0","RCS_SIZE":"LARGE","SITE":"AFETR"},{"PERIOD":"95.592","MEAN_ANOMALY":"285.4431","MEAN_MOTION_DOT":"0.00002151","COUNTRY_CODE":"US","SEMIMAJOR_AXIS":"6925.343","ECCENTRICITY":"0.00013490","REV_AT_EPOCH":"13785","RA_OF_ASC_NODE":"148.1106","MEAN_MOTION_DDOT":"0.0000000000000","TIME_SYSTEM":"UTC","REF_FRAME":"TEME","BSTAR":"0.00016326000000","CENTER_NAME":"EARTH","TLE_LINE2":"2 45748  53.0546 148.1106 0001349  74.6706 285.4431 15.06401716137853","ELEMENT_SET_NO":"999","MEAN_MOTION":"15.06401716","PERIAPSIS":"546.274","ARG_OF_PERICENTER":"74.6706","INCLINATION":"53.0546","MEAN_ELEMENT_THEORY":"SGP4","DECAY_DATE":null,"TLE_LINE1":"1 45748U 20038U   22346.50920099  .00002151  00000-0  16326-3 0  9992","OBJECT_TYPE":"PAYLOAD","EPOCH":"2022-12-12T12:13:14.965536","APOAPSIS":"548.143","CLASSIFICATION_TYPE":"U","GP_ID":"220164108","OBJECT_ID":"2020-038U","EPHEMERIS_TYPE":"0","SITE":"AFETR","RCS_SIZE":"LARGE","FILE":"3694071","NORAD_CAT_ID":"45748","OBJECT_NAME":"STARLINK-1507","LAUNCH_DATE":"2020-06-13"}];
